[{"OBJECT_NAME":"PRAETORIAN SDA_601","OBJECT_ID":"2025-203W","EPOCH":"2026-03-09T14:36:57.334752","MEAN_MOTION":13.83485126,"ECCENTRICITY":0.0006541,"INCLINATION":81.3004,"RA_OF_ASC_NODE":103.1096,"ARG_OF_PERICENTER":109.4555,"MEAN_ANOMALY":250.7309,"EPHEMERIS_TYPE":0,"CLASSIFICATION_TYPE":"U","NORAD_CAT_ID":65585,"ELEMENT_SET_NO":999,"REV_AT_EPOCH":2491,"BSTAR":-2.5722e-5,"MEAN_MOTION_DOT":-1.6e-7,"MEAN_MOTION_DDOT":0},{"OBJECT_NAME":"FENGYUN 1C DEB","OBJECT_ID":"1999-025CMV","EPOCH":"2026-03-03T05:45:58.279104","MEAN_MOTION":14.12086175,"ECCENTRICITY":0.01525449,"INCLINATION":99.2111,"RA_OF_ASC_NODE":216.9099,"ARG_OF_PERICENTER":138.7078,"MEAN_ANOMALY":345.2274,"EPHEMERIS_TYPE":0,"CLASSIFICATION_TYPE":"U","NORAD_CAT_ID":31944,"ELEMENT_SET_NO":999,"REV_AT_EPOCH":64046,"BSTAR":0.001137656,"MEAN_MOTION_DOT":2.283e-5,"MEAN_MOTION_DDOT":0}]
